HULIANWANG DIGUI-49     
1 65106U 25168A   26062.60921308 -.00000044  00000+0  17187-3 0  9990
2 65106  50.0050 344.6328 0007393 147.9076 212.2247 13.29338424 28645
HULIANWANG DIGUI-50     
1 65107U 25168B   26062.60081191 -.00000047  00000+0  16682-3 0  9990
2 65107  50.0020 344.5325 0008349 133.8604 226.2959 13.29339049 28641
HULIANWANG DIGUI-51     
1 65108U 25168C   26062.59244694 -.00000044  00000+0  17255-3 0  9992
2 65108  50.0057 344.5583 0009703 133.7398 226.4279 13.29339353 28647
HULIANWANG DIGUI-52     
1 65109U 25168D   26062.58420591 -.00000043  00000+0  17460-3 0  9991
2 65109  50.0051 344.4978 0009598 146.7581 213.3896 13.29338030 28640
HULIANWANG DIGUI-53     
1 65110U 25168E   26062.57585003 -.00000052  00000+0  15493-3 0  9996
2 65110  50.0058 344.4761 0008390 136.3936 223.7600 13.29337939 28642
HULIANWANG DIGUI-54     
1 65111U 25168F   26062.62614870 -.00000051  00000+0  15725-3 0  9995
2 65111  50.0009 343.9869 0009985 141.8077 218.3504 13.29335113 28656
HULIANWANG DIGUI-55     
1 65112U 25168G   26062.64260288 -.00000059  00000+0  13960-3 0  9995
2 65112  50.0015 344.0807 0011260 137.6344 222.5399 13.29338659 28654
HULIANWANG DIGUI-56     
1 65113U 25168H   26062.63426831 -.00000058  00000+0  14303-3 0  9994
2 65113  50.0006 344.0217 0010983 159.6613 200.4699 13.29338034 28659
HULIANWANG DIGUI-57     
1 65114U 25168J   26062.61781911 -.00000045  00000+0  16962-3 0  9995
2 65114  50.0034 343.9907 0008733 150.0803 210.0570 13.29334906 28661
HULIANWANG DIGUI-58     
1 65164U 25174A   26062.65008490  .00000098  00000+0  19443-3 0  9999
2 65164  86.4930 287.6731 0001248  85.8439 274.2838 13.24420949 26820
HULIANWANG DIGUI-59     
1 65165U 25174B   26062.58208827  .00000079  00000+0  15083-3 0  9993
2 65165  86.4891 287.6263 0001233  85.0899 275.0376 13.24421084 26819
HULIANWANG DIGUI-60     
1 65166U 25174C   26062.58961616  .00000072  00000+0  13359-3 0  9993
2 65166  86.4923 287.6926 0001200  87.0842 273.0429 13.24421333 26810
HULIANWANG DIGUI-61     
1 65167U 25174D   26062.59722595  .00000058  00000+0  10025-3 0  9997
2 65167  86.4931 287.7125 0001155  85.9811 274.1455 13.24419862 26819
HULIANWANG DIGUI-62     
1 65168U 25174E   26062.60473602  .00000054  00000+0  91205-4 0  9998
2 65168  86.4872 287.6003 0001155  88.5339 271.5928 13.24421192 26817
HULIANWANG DIGUI-63     
1 65169U 25174F   26062.61227637  .00000062  00000+0  11100-3 0  9999
2 65169  86.4925 287.7063 0001179  86.1595 273.9674 13.24421580 26813
HULIANWANG DIGUI-64     
1 65170U 25174G   26062.61983328  .00000066  00000+0  11994-3 0  9992
2 65170  86.4884 287.6298 0001164  88.7807 271.3461 13.24421579 26810
