[{"OBJECT_NAME":"HULIANWANG DIGUI-49","OBJECT_ID":"2025-168A","EPOCH":"2026-03-03T14:37:16.010112","MEAN_MOTION":13.29338424,"ECCENTRICITY":0.00073939,"INCLINATION":50.005,"RA_OF_ASC_NODE":344.6328,"ARG_OF_PERICENTER":147.9076,"MEAN_ANOMALY":212.2247,"EPHEMERIS_TYPE":0,"CLASSIFICATION_TYPE":"U","NORAD_CAT_ID":65106,"ELEMENT_SET_NO":999,"REV_AT_EPOCH":2864,"BSTAR":0.00017187134,"MEAN_MOTION_DOT":-4.4e-7,"MEAN_MOTION_DDOT":0},{"OBJECT_NAME":"HULIANWANG DIGUI-50","OBJECT_ID":"2025-168B","EPOCH":"2026-03-03T14:25:10.149024","MEAN_MOTION":13.29339049,"ECCENTRICITY":0.00083498,"INCLINATION":50.002,"RA_OF_ASC_NODE":344.5325,"ARG_OF_PERICENTER":133.8604,"MEAN_ANOMALY":226.2959,"EPHEMERIS_TYPE":0,"CLASSIFICATION_TYPE":"U","NORAD_CAT_ID":65107,"ELEMENT_SET_NO":999,"REV_AT_EPOCH":2864,"BSTAR":0.00016682243,"MEAN_MOTION_DOT":-4.7e-7,"MEAN_MOTION_DDOT":0},{"OBJECT_NAME":"HULIANWANG DIGUI-51","OBJECT_ID":"2025-168C","EPOCH":"2026-03-03T14:13:07.415616","MEAN_MOTION":13.29339353,"ECCENTRICITY":0.00097039,"INCLINATION":50.0057,"RA_OF_ASC_NODE":344.5583,"ARG_OF_PERICENTER":133.7398,"MEAN_ANOMALY":226.4279,"EPHEMERIS_TYPE":0,"CLASSIFICATION_TYPE":"U","NORAD_CAT_ID":65108,"ELEMENT_SET_NO":999,"REV_AT_EPOCH":2864,"BSTAR":0.00017255308,"MEAN_MOTION_DOT":-4.4e-7,"MEAN_MOTION_DDOT":0},{"OBJECT_NAME":"HULIANWANG DIGUI-52","OBJECT_ID":"2025-168D","EPOCH":"2026-03-03T14:01:15.390624","MEAN_MOTION":13.2933803,"ECCENTRICITY":0.00095981,"INCLINATION":50.0051,"RA_OF_ASC_NODE":344.4978,"ARG_OF_PERICENTER":146.7581,"MEAN_ANOMALY":213.3896,"EPHEMERIS_TYPE":0,"CLASSIFICATION_TYPE":"U","NORAD_CAT_ID":65109,"ELEMENT_SET_NO":999,"REV_AT_EPOCH":2864,"BSTAR":0.00017459916,"MEAN_MOTION_DOT":-4.3e-7,"MEAN_MOTION_DDOT":0},{"OBJECT_NAME":"HULIANWANG DIGUI-53","OBJECT_ID":"2025-168E","EPOCH":"2026-03-03T13:49:13.442592","MEAN_MOTION":13.29337939,"ECCENTRICITY":0.00083902,"INCLINATION":50.0058,"RA_OF_ASC_NODE":344.4761,"ARG_OF_PERICENTER":136.3936,"MEAN_ANOMALY":223.76,"EPHEMERIS_TYPE":0,"CLASSIFICATION_TYPE":"U","NORAD_CAT_ID":65110,"ELEMENT_SET_NO":999,"REV_AT_EPOCH":2864,"BSTAR":0.00015492973,"MEAN_MOTION_DOT":-5.2e-7,"MEAN_MOTION_DDOT":0},{"OBJECT_NAME":"HULIANWANG DIGUI-54","OBJECT_ID":"2025-168F","EPOCH":"2026-03-03T15:01:39.247680","MEAN_MOTION":13.29335113,"ECCENTRICITY":0.00099859,"INCLINATION":50.0009,"RA_OF_ASC_NODE":343.9869,"ARG_OF_PERICENTER":141.8077,"MEAN_ANOMALY":218.3504,"EPHEMERIS_TYPE":0,"CLASSIFICATION_TYPE":"U","NORAD_CAT_ID":65111,"ELEMENT_SET_NO":999,"REV_AT_EPOCH":2865,"BSTAR":0.00015725095,"MEAN_MOTION_DOT":-5.1e-7,"MEAN_MOTION_DDOT":0},{"OBJECT_NAME":"HULIANWANG DIGUI-55","OBJECT_ID":"2025-168G","EPOCH":"2026-03-03T15:25:20.888832","MEAN_MOTION":13.29338659,"ECCENTRICITY":0.00112609,"INCLINATION":50.0015,"RA_OF_ASC_NODE":344.0807,"ARG_OF_PERICENTER":137.6344,"MEAN_ANOMALY":222.5399,"EPHEMERIS_TYPE":0,"CLASSIFICATION_TYPE":"U","NORAD_CAT_ID":65112,"ELEMENT_SET_NO":999,"REV_AT_EPOCH":2865,"BSTAR":0.0001395972,"MEAN_MOTION_DOT":-5.9e-7,"MEAN_MOTION_DDOT":0},{"OBJECT_NAME":"HULIANWANG DIGUI-56","OBJECT_ID":"2025-168H","EPOCH":"2026-03-03T15:13:20.781984","MEAN_MOTION":13.29338034,"ECCENTRICITY":0.00109833,"INCLINATION":50.0006,"RA_OF_ASC_NODE":344.0217,"ARG_OF_PERICENTER":159.6613,"MEAN_ANOMALY":200.4699,"EPHEMERIS_TYPE":0,"CLASSIFICATION_TYPE":"U","NORAD_CAT_ID":65113,"ELEMENT_SET_NO":999,"REV_AT_EPOCH":2865,"BSTAR":0.00014303117,"MEAN_MOTION_DOT":-5.8e-7,"MEAN_MOTION_DDOT":0},{"OBJECT_NAME":"HULIANWANG DIGUI-57","OBJECT_ID":"2025-168J","EPOCH":"2026-03-03T14:49:39.571104","MEAN_MOTION":13.29334906,"ECCENTRICITY":0.00087339,"INCLINATION":50.0034,"RA_OF_ASC_NODE":343.9907,"ARG_OF_PERICENTER":150.0803,"MEAN_ANOMALY":210.057,"EPHEMERIS_TYPE":0,"CLASSIFICATION_TYPE":"U","NORAD_CAT_ID":65114,"ELEMENT_SET_NO":999,"REV_AT_EPOCH":2866,"BSTAR":0.00016961696,"MEAN_MOTION_DOT":-4.5e-7,"MEAN_MOTION_DDOT":0},{"OBJECT_NAME":"HULIANWANG DIGUI-58","OBJECT_ID":"2025-174A","EPOCH":"2026-03-03T15:36:07.335360","MEAN_MOTION":13.24420949,"ECCENTRICITY":0.00012481,"INCLINATION":86.493,"RA_OF_ASC_NODE":287.6731,"ARG_OF_PERICENTER":85.8439,"MEAN_ANOMALY":274.2838,"EPHEMERIS_TYPE":0,"CLASSIFICATION_TYPE":"U","NORAD_CAT_ID":65164,"ELEMENT_SET_NO":999,"REV_AT_EPOCH":2682,"BSTAR":0.00019442843,"MEAN_MOTION_DOT":9.8e-7,"MEAN_MOTION_DDOT":0},{"OBJECT_NAME":"HULIANWANG DIGUI-59","OBJECT_ID":"2025-174B","EPOCH":"2026-03-03T13:58:12.426528","MEAN_MOTION":13.24421084,"ECCENTRICITY":0.00012337,"INCLINATION":86.4891,"RA_OF_ASC_NODE":287.6263,"ARG_OF_PERICENTER":85.0899,"MEAN_ANOMALY":275.0376,"EPHEMERIS_TYPE":0,"CLASSIFICATION_TYPE":"U","NORAD_CAT_ID":65165,"ELEMENT_SET_NO":999,"REV_AT_EPOCH":2681,"BSTAR":0.00015083007,"MEAN_MOTION_DOT":7.9e-7,"MEAN_MOTION_DDOT":0},{"OBJECT_NAME":"HULIANWANG DIGUI-60","OBJECT_ID":"2025-174C","EPOCH":"2026-03-03T14:09:02.836224","MEAN_MOTION":13.24421333,"ECCENTRICITY":0.00012009,"INCLINATION":86.4923,"RA_OF_ASC_NODE":287.6926,"ARG_OF_PERICENTER":87.0842,"MEAN_ANOMALY":273.0429,"EPHEMERIS_TYPE":0,"CLASSIFICATION_TYPE":"U","NORAD_CAT_ID":65166,"ELEMENT_SET_NO":999,"REV_AT_EPOCH":2681,"BSTAR":0.00013359421,"MEAN_MOTION_DOT":7.2e-7,"MEAN_MOTION_DDOT":0},{"OBJECT_NAME":"HULIANWANG DIGUI-61","OBJECT_ID":"2025-174D","EPOCH":"2026-03-03T14:20:00.322080","MEAN_MOTION":13.24419862,"ECCENTRICITY":0.00011553,"INCLINATION":86.4931,"RA_OF_ASC_NODE":287.7125,"ARG_OF_PERICENTER":85.9811,"MEAN_ANOMALY":274.1455,"EPHEMERIS_TYPE":0,"CLASSIFICATION_TYPE":"U","NORAD_CAT_ID":65167,"ELEMENT_SET_NO":999,"REV_AT_EPOCH":2681,"BSTAR":0.00010025166,"MEAN_MOTION_DOT":5.8e-7,"MEAN_MOTION_DDOT":0},{"OBJECT_NAME":"HULIANWANG DIGUI-62","OBJECT_ID":"2025-174E","EPOCH":"2026-03-03T14:30:49.192128","MEAN_MOTION":13.24421192,"ECCENTRICITY":0.00011557,"INCLINATION":86.4872,"RA_OF_ASC_NODE":287.6003,"ARG_OF_PERICENTER":88.5339,"MEAN_ANOMALY":271.5928,"EPHEMERIS_TYPE":0,"CLASSIFICATION_TYPE":"U","NORAD_CAT_ID":65168,"ELEMENT_SET_NO":999,"REV_AT_EPOCH":2681,"BSTAR":9.120514e-5,"MEAN_MOTION_DOT":5.4e-7,"MEAN_MOTION_DDOT":0},{"OBJECT_NAME":"HULIANWANG DIGUI-63","OBJECT_ID":"2025-174F","EPOCH":"2026-03-03T14:41:40.678368","MEAN_MOTION":13.2442158,"ECCENTRICITY":0.00011794,"INCLINATION":86.4925,"RA_OF_ASC_NODE":287.7063,"ARG_OF_PERICENTER":86.1595,"MEAN_ANOMALY":273.9674,"EPHEMERIS_TYPE":0,"CLASSIFICATION_TYPE":"U","NORAD_CAT_ID":65169,"ELEMENT_SET_NO":999,"REV_AT_EPOCH":2681,"BSTAR":0.00011100386,"MEAN_MOTION_DOT":6.2e-7,"MEAN_MOTION_DDOT":0},{"OBJECT_NAME":"HULIANWANG DIGUI-64","OBJECT_ID":"2025-174G","EPOCH":"2026-03-03T14:52:33.595392","MEAN_MOTION":13.24421579,"ECCENTRICITY":0.00011649,"INCLINATION":86.4884,"RA_OF_ASC_NODE":287.6298,"ARG_OF_PERICENTER":88.7807,"MEAN_ANOMALY":271.3461,"EPHEMERIS_TYPE":0,"CLASSIFICATION_TYPE":"U","NORAD_CAT_ID":65170,"ELEMENT_SET_NO":999,"REV_AT_EPOCH":2681,"BSTAR":0.00011994274,"MEAN_MOTION_DOT":6.6e-7,"MEAN_MOTION_DDOT":0}]
